HIMAWARI-8              
1 40267U 14060A   24089.56577149 -.00000266  00000+0  00000+0 0  9990
2 40267   0.0238 166.1762 0000923 236.6857 128.9325  1.00271110 34644
